<?xml version="1.0" encoding="UTF-8"?>
<ndm xmlns:xsi="http://www.w3.org/2001/XMLSchema-instance" xsi:noNamespaceSchemaLocation="https://sanaregistry.org/r/ndmxml_unqualified/ndmxml-2.0.0-master-2.0.xsd">
<omm id="CCSDS_OMM_VERS" version="2.0">
<header><CREATION_DATE/><ORIGINATOR/></header><body><segment><metadata><OBJECT_NAME>KUIPER-00027</OBJECT_NAME><OBJECT_ID>2025-088S</OBJECT_ID><CENTER_NAME>EARTH</CENTER_NAME><REF_FRAME>TEME</REF_FRAME><TIME_SYSTEM>UTC</TIME_SYSTEM><MEAN_ELEMENT_THEORY>SGP4</MEAN_ELEMENT_THEORY></metadata><data><meanElements><EPOCH>2025-07-24T16:37:32.033568</EPOCH><MEAN_MOTION>15.38076333</MEAN_MOTION><ECCENTRICITY>.0001844</ECCENTRICITY><INCLINATION>51.8712</INCLINATION><RA_OF_ASC_NODE>38.6824</RA_OF_ASC_NODE><ARG_OF_PERICENTER>82.0654</ARG_OF_PERICENTER><MEAN_ANOMALY>278.0542</MEAN_ANOMALY></meanElements><tleParameters><EPHEMERIS_TYPE>0</EPHEMERIS_TYPE><CLASSIFICATION_TYPE>U</CLASSIFICATION_TYPE><NORAD_CAT_ID>63740</NORAD_CAT_ID><ELEMENT_SET_NO>999</ELEMENT_SET_NO><REV_AT_EPOCH>1364</REV_AT_EPOCH><BSTAR>.2938E-3</BSTAR><MEAN_MOTION_DOT>.10806E-3</MEAN_MOTION_DOT><MEAN_MOTION_DDOT>0</MEAN_MOTION_DDOT></tleParameters></data></segment></body></omm>
<omm id="CCSDS_OMM_VERS" version="2.0">
<header><CREATION_DATE/><ORIGINATOR/></header><body><segment><metadata><OBJECT_NAME>KUIPER-00028</OBJECT_NAME><OBJECT_ID>2025-088T</OBJECT_ID><CENTER_NAME>EARTH</CENTER_NAME><REF_FRAME>TEME</REF_FRAME><TIME_SYSTEM>UTC</TIME_SYSTEM><MEAN_ELEMENT_THEORY>SGP4</MEAN_ELEMENT_THEORY></metadata><data><meanElements><EPOCH>2025-07-24T19:32:09.077280</EPOCH><MEAN_MOTION>15.38181241</MEAN_MOTION><ECCENTRICITY>.0001544</ECCENTRICITY><INCLINATION>51.8698</INCLINATION><RA_OF_ASC_NODE>37.9921</RA_OF_ASC_NODE><ARG_OF_PERICENTER>60.5675</ARG_OF_PERICENTER><MEAN_ANOMALY>299.5466</MEAN_ANOMALY></meanElements><tleParameters><EPHEMERIS_TYPE>0</EPHEMERIS_TYPE><CLASSIFICATION_TYPE>U</CLASSIFICATION_TYPE><NORAD_CAT_ID>63741</NORAD_CAT_ID><ELEMENT_SET_NO>999</ELEMENT_SET_NO><REV_AT_EPOCH>1407</REV_AT_EPOCH><BSTAR>.21095E-4</BSTAR><MEAN_MOTION_DOT>.411E-5</MEAN_MOTION_DOT><MEAN_MOTION_DDOT>0</MEAN_MOTION_DDOT></tleParameters></data></segment></body></omm>
<omm id="CCSDS_OMM_VERS" version="2.0">
<header><CREATION_DATE/><ORIGINATOR/></header><body><segment><metadata><OBJECT_NAME>KUIPER-00029</OBJECT_NAME><OBJECT_ID>2025-088U</OBJECT_ID><CENTER_NAME>EARTH</CENTER_NAME><REF_FRAME>TEME</REF_FRAME><TIME_SYSTEM>UTC</TIME_SYSTEM><MEAN_ELEMENT_THEORY>SGP4</MEAN_ELEMENT_THEORY></metadata><data><meanElements><EPOCH>2025-07-24T19:14:58.226784</EPOCH><MEAN_MOTION>15.36990782</MEAN_MOTION><ECCENTRICITY>.0005092</ECCENTRICITY><INCLINATION>51.8696</INCLINATION><RA_OF_ASC_NODE>38.6418</RA_OF_ASC_NODE><ARG_OF_PERICENTER>71.9078</ARG_OF_PERICENTER><MEAN_ANOMALY>288.2463</MEAN_ANOMALY></meanElements><tleParameters><EPHEMERIS_TYPE>0</EPHEMERIS_TYPE><CLASSIFICATION_TYPE>U</CLASSIFICATION_TYPE><NORAD_CAT_ID>63742</NORAD_CAT_ID><ELEMENT_SET_NO>999</ELEMENT_SET_NO><REV_AT_EPOCH>1359</REV_AT_EPOCH><BSTAR>.42582E-3</BSTAR><MEAN_MOTION_DOT>.15294E-3</MEAN_MOTION_DOT><MEAN_MOTION_DDOT>0</MEAN_MOTION_DDOT></tleParameters></data></segment></body></omm>
<omm id="CCSDS_OMM_VERS" version="2.0">
<header><CREATION_DATE/><ORIGINATOR/></header><body><segment><metadata><OBJECT_NAME>KUIPER-00030</OBJECT_NAME><OBJECT_ID>2025-088V</OBJECT_ID><CENTER_NAME>EARTH</CENTER_NAME><REF_FRAME>TEME</REF_FRAME><TIME_SYSTEM>UTC</TIME_SYSTEM><MEAN_ELEMENT_THEORY>SGP4</MEAN_ELEMENT_THEORY></metadata><data><meanElements><EPOCH>2025-07-25T12:00:00.999648</EPOCH><MEAN_MOTION>15.12013201</MEAN_MOTION><ECCENTRICITY>.0012407</ECCENTRICITY><INCLINATION>51.8862</INCLINATION><RA_OF_ASC_NODE>38.8650</RA_OF_ASC_NODE><ARG_OF_PERICENTER>52.6568</ARG_OF_PERICENTER><MEAN_ANOMALY>289.5776</MEAN_ANOMALY></meanElements><tleParameters><EPHEMERIS_TYPE>0</EPHEMERIS_TYPE><CLASSIFICATION_TYPE>U</CLASSIFICATION_TYPE><NORAD_CAT_ID>63743</NORAD_CAT_ID><ELEMENT_SET_NO>999</ELEMENT_SET_NO><REV_AT_EPOCH>1392</REV_AT_EPOCH><BSTAR>.2308E-2</BSTAR><MEAN_MOTION_DOT>.40121E-3</MEAN_MOTION_DOT><MEAN_MOTION_DDOT>0</MEAN_MOTION_DDOT></tleParameters></data></segment></body></omm>
<omm id="CCSDS_OMM_VERS" version="2.0">
<header><CREATION_DATE/><ORIGINATOR/></header><body><segment><metadata><OBJECT_NAME>KUIPER-00031</OBJECT_NAME><OBJECT_ID>2025-088W</OBJECT_ID><CENTER_NAME>EARTH</CENTER_NAME><REF_FRAME>TEME</REF_FRAME><TIME_SYSTEM>UTC</TIME_SYSTEM><MEAN_ELEMENT_THEORY>SGP4</MEAN_ELEMENT_THEORY></metadata><data><meanElements><EPOCH>2025-07-24T20:04:51.971232</EPOCH><MEAN_MOTION>15.37701732</MEAN_MOTION><ECCENTRICITY>.0004149</ECCENTRICITY><INCLINATION>51.8701</INCLINATION><RA_OF_ASC_NODE>38.1352</RA_OF_ASC_NODE><ARG_OF_PERICENTER>67.4499</ARG_OF_PERICENTER><MEAN_ANOMALY>292.6926</MEAN_ANOMALY></meanElements><tleParameters><EPHEMERIS_TYPE>0</EPHEMERIS_TYPE><CLASSIFICATION_TYPE>U</CLASSIFICATION_TYPE><NORAD_CAT_ID>63744</NORAD_CAT_ID><ELEMENT_SET_NO>999</ELEMENT_SET_NO><REV_AT_EPOCH>1360</REV_AT_EPOCH><BSTAR>.372E-3</BSTAR><MEAN_MOTION_DOT>.13623E-3</MEAN_MOTION_DOT><MEAN_MOTION_DDOT>0</MEAN_MOTION_DDOT></tleParameters></data></segment></body></omm>
<omm id="CCSDS_OMM_VERS" version="2.0">
<header><CREATION_DATE/><ORIGINATOR/></header><body><segment><metadata><OBJECT_NAME>KUIPER-00032</OBJECT_NAME><OBJECT_ID>2025-088X</OBJECT_ID><CENTER_NAME>EARTH</CENTER_NAME><REF_FRAME>TEME</REF_FRAME><TIME_SYSTEM>UTC</TIME_SYSTEM><MEAN_ELEMENT_THEORY>SGP4</MEAN_ELEMENT_THEORY></metadata><data><meanElements><EPOCH>2025-07-25T12:04:57.889920</EPOCH><MEAN_MOTION>15.36672141</MEAN_MOTION><ECCENTRICITY>.0004905</ECCENTRICITY><INCLINATION>51.8696</INCLINATION><RA_OF_ASC_NODE>35.0912</RA_OF_ASC_NODE><ARG_OF_PERICENTER>65.2600</ARG_OF_PERICENTER><MEAN_ANOMALY>294.8897</MEAN_ANOMALY></meanElements><tleParameters><EPHEMERIS_TYPE>0</EPHEMERIS_TYPE><CLASSIFICATION_TYPE>U</CLASSIFICATION_TYPE><NORAD_CAT_ID>63745</NORAD_CAT_ID><ELEMENT_SET_NO>999</ELEMENT_SET_NO><REV_AT_EPOCH>1470</REV_AT_EPOCH><BSTAR>-.51338E-2</BSTAR><MEAN_MOTION_DOT>-.182783E-2</MEAN_MOTION_DOT><MEAN_MOTION_DDOT>0</MEAN_MOTION_DDOT></tleParameters></data></segment></body></omm>
<omm id="CCSDS_OMM_VERS" version="2.0">
<header><CREATION_DATE/><ORIGINATOR/></header><body><segment><metadata><OBJECT_NAME>KUIPER-00033</OBJECT_NAME><OBJECT_ID>2025-088Y</OBJECT_ID><CENTER_NAME>EARTH</CENTER_NAME><REF_FRAME>TEME</REF_FRAME><TIME_SYSTEM>UTC</TIME_SYSTEM><MEAN_ELEMENT_THEORY>SGP4</MEAN_ELEMENT_THEORY></metadata><data><meanElements><EPOCH>2025-07-24T23:37:15.991104</EPOCH><MEAN_MOTION>14.79795481</MEAN_MOTION><ECCENTRICITY>.0003404</ECCENTRICITY><INCLINATION>51.9016</INCLINATION><RA_OF_ASC_NODE>53.5102</RA_OF_ASC_NODE><ARG_OF_PERICENTER>131.5521</ARG_OF_PERICENTER><MEAN_ANOMALY>228.5734</MEAN_ANOMALY></meanElements><tleParameters><EPHEMERIS_TYPE>0</EPHEMERIS_TYPE><CLASSIFICATION_TYPE>U</CLASSIFICATION_TYPE><NORAD_CAT_ID>63746</NORAD_CAT_ID><ELEMENT_SET_NO>999</ELEMENT_SET_NO><REV_AT_EPOCH>1388</REV_AT_EPOCH><BSTAR>.29898E-3</BSTAR><MEAN_MOTION_DOT>.2051E-4</MEAN_MOTION_DOT><MEAN_MOTION_DDOT>0</MEAN_MOTION_DDOT></tleParameters></data></segment></body></omm>
<omm id="CCSDS_OMM_VERS" version="2.0">
<header><CREATION_DATE/><ORIGINATOR/></header><body><segment><metadata><OBJECT_NAME>KUIPER-00034</OBJECT_NAME><OBJECT_ID>2025-088Z</OBJECT_ID><CENTER_NAME>EARTH</CENTER_NAME><REF_FRAME>TEME</REF_FRAME><TIME_SYSTEM>UTC</TIME_SYSTEM><MEAN_ELEMENT_THEORY>SGP4</MEAN_ELEMENT_THEORY></metadata><data><meanElements><EPOCH>2025-07-24T19:38:07.162080</EPOCH><MEAN_MOTION>15.37836258</MEAN_MOTION><ECCENTRICITY>.0002178</ECCENTRICITY><INCLINATION>51.8716</INCLINATION><RA_OF_ASC_NODE>38.0216</RA_OF_ASC_NODE><ARG_OF_PERICENTER>85.7633</ARG_OF_PERICENTER><MEAN_ANOMALY>274.3603</MEAN_ANOMALY></meanElements><tleParameters><EPHEMERIS_TYPE>0</EPHEMERIS_TYPE><CLASSIFICATION_TYPE>U</CLASSIFICATION_TYPE><NORAD_CAT_ID>63747</NORAD_CAT_ID><ELEMENT_SET_NO>999</ELEMENT_SET_NO><REV_AT_EPOCH>1376</REV_AT_EPOCH><BSTAR>.42051E-3</BSTAR><MEAN_MOTION_DOT>.15522E-3</MEAN_MOTION_DOT><MEAN_MOTION_DDOT>0</MEAN_MOTION_DDOT></tleParameters></data></segment></body></omm>

</ndm>
