KUIPER-00027            
1 63740U 25088S   25205.69273187  .00010806  00000+0  29380-3 0  9999
2 63740  51.8712  38.6824 0001844  82.0654 278.0542 15.38076333 13640
KUIPER-00028            
1 63741U 25088T   25205.81399395  .00000411  00000+0  21095-4 0  9991
2 63741  51.8698  37.9921 0001544  60.5675 299.5466 15.38181241 14071
KUIPER-00029            
1 63742U 25088U   25205.80206281  .00015294  00000+0  42582-3 0  9990
2 63742  51.8696  38.6418 0005092  71.9078 288.2463 15.36990782 13598
KUIPER-00030            
1 63743U 25088V   25206.50001157  .00040121  00000+0  23080-2 0  9992
2 63743  51.8862  38.8650 0012407  52.6568 289.5776 15.12013201 13926
KUIPER-00031            
1 63744U 25088W   25205.83671263  .00013623  00000+0  37200-3 0  9996
2 63744  51.8701  38.1352 0004149  67.4499 292.6926 15.37701732 13609
KUIPER-00032            
1 63745U 25088X   25206.50344780 -.00182783  00000+0 -51338-2 0  9996
2 63745  51.8696  35.0912 0004905  65.2600 294.8897 15.36672141 14704
KUIPER-00033            
1 63746U 25088Y   25205.98421286  .00002051  00000+0  29898-3 0  9999
2 63746  51.9016  53.5102 0003404 131.5521 228.5734 14.79795481 13881
KUIPER-00034            
1 63747U 25088Z   25205.81813845  .00015522  00000+0  42051-3 0  9991
2 63747  51.8716  38.0216 0002178  85.7633 274.3603 15.37836258 13767
